[{"OBJECT_NAME":"STARLINK-34020","OBJECT_ID":"2025-098P","EPOCH":"2026-03-09T22:43:50.461248","MEAN_MOTION":15.00378099,"ECCENTRICITY":0.00060082,"INCLINATION":69.9999,"RA_OF_ASC_NODE":273.6983,"ARG_OF_PERICENTER":279.1052,"MEAN_ANOMALY":80.9428,"EPHEMERIS_TYPE":0,"CLASSIFICATION_TYPE":"U","NORAD_CAT_ID":63939,"ELEMENT_SET_NO":999,"REV_AT_EPOCH":4659,"BSTAR":0.10050739,"MEAN_MOTION_DOT":0.01381015,"MEAN_MOTION_DDOT":0},{"OBJECT_NAME":"SL-14 R\/B","OBJECT_ID":"1977-055B","EPOCH":"2026-03-09T12:09:50.153472","MEAN_MOTION":14.92006976,"ECCENTRICITY":0.00409775,"INCLINATION":75.8306,"RA_OF_ASC_NODE":90.7175,"ARG_OF_PERICENTER":356.0217,"MEAN_ANOMALY":4.0643,"EPHEMERIS_TYPE":0,"CLASSIFICATION_TYPE":"U","NORAD_CAT_ID":10096,"ELEMENT_SET_NO":999,"REV_AT_EPOCH":63654,"BSTAR":8.4112642e-5,"MEAN_MOTION_DOT":8.45e-6,"MEAN_MOTION_DDOT":0}]
